{
  "type": "FeatureCollection",
  "features": [
    {
      "type": "Feature",
      "properties": {
        "norad_id": 66477,
        "name": "STARLINK-35354",
        "group": "last-30-days",
        "lat": -11.400163395330278,
        "lon": 119.3358910400763,
        "alt_km": 374.45462275939553,
        "timestamp": "2025-12-02T08:59:31.503478+00:00",
        "meta_object_name": "STARLINK-35354",
        "meta_object_id": "2025-262X",
        "meta_epoch": "2025-12-02T04:00:03.998880",
        "meta_mean_motion": 15.65845726,
        "meta_eccentricity": 0.0001417,
        "meta_inclination": 42.9998,
        "meta_ra_of_asc_node": 133.0768,
        "meta_arg_of_pericenter": 263.488,
        "meta_mean_anomaly": 346.4134,
        "meta_ephemeris_type": 0,
        "meta_classification_type": "U",
        "meta_norad_cat_id": 66477,
        "meta_element_set_no": 999,
        "meta_rev_at_epoch": 393,
        "meta_bstar": -0.023557,
        "meta_mean_motion_dot": -0.02144281,
        "meta_mean_motion_ddot": 0,
        "tle_line1": "1 66477U 25262X   25336.16671295 -.02144281  00000+0 -23557-1 0  9999",
        "tle_line2": "2 66477  42.9998 133.0768 0001417 263.4880 346.4134 15.65845726  3934"
      },
      "geometry": {
        "type": "Point",
        "coordinates": [
          119.3358910400763,
          -11.400163395330278
        ]
      }
    },
    {
      "type": "Feature",
      "properties": {
        "norad_id": 66478,
        "name": "STARLINK-35283",
        "group": "last-30-days",
        "lat": -10.1207538806956,
        "lon": 120.7836972848522,
        "alt_km": 374.2844242069832,
        "timestamp": "2025-12-02T08:59:31.503488+00:00",
        "meta_object_name": "STARLINK-35283",
        "meta_object_id": "2025-262Y",
        "meta_epoch": "2025-12-02T04:00:03.998880",
        "meta_mean_motion": 15.658497,
        "meta_eccentricity": 0.0001629,
        "meta_inclination": 42.9997,
        "meta_ra_of_asc_node": 133.0714,
        "meta_arg_of_pericenter": 265.2611,
        "meta_mean_anomaly": 346.5533,
        "meta_ephemeris_type": 0,
        "meta_classification_type": "U",
        "meta_norad_cat_id": 66478,
        "meta_element_set_no": 999,
        "meta_rev_at_epoch": 393,
        "meta_bstar": -0.023604,
        "meta_mean_motion_dot": -0.02148513,
        "meta_mean_motion_ddot": 0,
        "tle_line1": "1 66478U 25262Y   25336.16671295 -.02148513  00000+0 -23604-1 0  9995",
        "tle_line2": "2 66478  42.9997 133.0714 0001629 265.2611 346.5533 15.65849700  3932"
      },
      "geometry": {
        "type": "Point",
        "coordinates": [
          120.7836972848522,
          -10.1207538806956
        ]
      }
    },
    {
      "type": "Feature",
      "properties": {
        "norad_id": 66479,
        "name": "STARLINK-35581",
        "group": "last-30-days",
        "lat": -12.674182137389565,
        "lon": 117.87152579864649,
        "alt_km": 374.43231745749017,
        "timestamp": "2025-12-02T08:59:31.503498+00:00",
        "meta_object_name": "STARLINK-35581",
        "meta_object_id": "2025-262Z",
        "meta_epoch": "2025-12-02T04:00:03.998880",
        "meta_mean_motion": 15.65839953,
        "meta_eccentricity": 0.0001504,
        "meta_inclination": 42.9998,
        "meta_ra_of_asc_node": 133.0809,
        "meta_arg_of_pericenter": 268.9498,
        "meta_mean_anomaly": 339.0333,
        "meta_ephemeris_type": 0,
        "meta_classification_type": "U",
        "meta_norad_cat_id": 66479,
        "meta_element_set_no": 999,
        "meta_rev_at_epoch": 393,
        "meta_bstar": -0.023446,
        "meta_mean_motion_dot": -0.02135161,
        "meta_mean_motion_ddot": 0,
        "tle_line1": "1 66479U 25262Z   25336.16671295 -.02135161  00000+0 -23446-1 0  9995",
        "tle_line2": "2 66479  42.9998 133.0809 0001504 268.9498 339.0333 15.65839953  3938"
      },
      "geometry": {
        "type": "Point",
        "coordinates": [
          117.87152579864649,
          -12.674182137389565
        ]
      }
    },
    {
      "type": "Feature",
      "properties": {
        "norad_id": 66480,
        "name": "STARLINK-35670",
        "group": "last-30-days",
        "lat": -8.83798782384429,
        "lon": 122.21685771845323,
        "alt_km": 374.2152251843436,
        "timestamp": "2025-12-02T08:59:31.503508+00:00",
        "meta_object_name": "STARLINK-35670",
        "meta_object_id": "2025-262AA",
        "meta_epoch": "2025-12-02T04:00:03.998880",
        "meta_mean_motion": 15.65834844,
        "meta_eccentricity": 0.0001627,
        "meta_inclination": 42.9996,
        "meta_ra_of_asc_node": 133.0662,
        "meta_arg_of_pericenter": 264.2887,
        "meta_mean_anomaly": 349.4453,
        "meta_ephemeris_type": 0,
        "meta_classification_type": "U",
        "meta_norad_cat_id": 66480,
        "meta_element_set_no": 999,
        "meta_rev_at_epoch": 393,
        "meta_bstar": -0.023331,
        "meta_mean_motion_dot": -0.0212584,
        "meta_mean_motion_ddot": 0,
        "tle_line1": "1 66480U 25262AA  25336.16671295 -.02125840  00000+0 -23331-1 0  9993",
        "tle_line2": "2 66480  42.9996 133.0662 0001627 264.2887 349.4453 15.65834844  3934"
      },
      "geometry": {
        "type": "Point",
        "coordinates": [
          122.21685771845323,
          -8.83798782384429
        ]
      }
    },
    {
      "type": "Feature",
      "properties": {
        "norad_id": 66481,
        "name": "STARLINK-35698",
        "group": "last-30-days",
        "lat": -7.545369260821881,
        "lon": 123.64472867061795,
        "alt_km": 374.08225239484545,
        "timestamp": "2025-12-02T08:59:31.503520+00:00",
        "meta_object_name": "STARLINK-35698",
        "meta_object_id": "2025-262AB",
        "meta_epoch": "2025-12-02T04:00:03.998880",
        "meta_mean_motion": 15.6584275,
        "meta_eccentricity": 0.0001507,
        "meta_inclination": 42.9997,
        "meta_ra_of_asc_node": 133.0608,
        "meta_arg_of_pericenter": 265.7197,
        "meta_mean_anomaly": 349.932,
        "meta_ephemeris_type": 0,
        "meta_classification_type": "U",
        "meta_norad_cat_id": 66481,
        "meta_element_set_no": 999,
        "meta_rev_at_epoch": 393,
        "meta_bstar": -0.023491,
        "meta_mean_motion_dot": -0.02138961,
        "meta_mean_motion_ddot": 0,
        "tle_line1": "1 66481U 25262AB  25336.16671295 -.02138961  00000+0 -23491-1 0  9999",
        "tle_line2": "2 66481  42.9997 133.0608 0001507 265.7197 349.9320 15.65842750  3936"
      },
      "geometry": {
        "type": "Point",
        "coordinates": [
          123.64472867061795,
          -7.545369260821881
        ]
      }
    },
    {
      "type": "Feature",
      "properties": {
        "norad_id": 66482,
        "name": "STARLINK-35648",
        "group": "last-30-days",
        "lat": -6.250757701674801,
        "lon": 125.06212788027047,
        "alt_km": 373.9808073425502,
        "timestamp": "2025-12-02T08:59:31.503532+00:00",
        "meta_object_name": "STARLINK-35648",
        "meta_object_id": "2025-262AC",
        "meta_epoch": "2025-12-02T04:00:03.998880",
        "meta_mean_motion": 15.65836771,
        "meta_eccentricity": 0.0001537,
        "meta_inclination": 42.9997,
        "meta_ra_of_asc_node": 133.0564,
        "meta_arg_of_pericenter": 265.2684,
        "meta_mean_anomaly": 352.301,
        "meta_ephemeris_type": 0,
        "meta_classification_type": "U",
        "meta_norad_cat_id": 66482,
        "meta_element_set_no": 999,
        "meta_rev_at_epoch": 378,
        "meta_bstar": -0.023375,
        "meta_mean_motion_dot": -0.02129369,
        "meta_mean_motion_ddot": 0,
        "tle_line1": "1 66482U 25262AC  25336.16671295 -.02129369  00000+0 -23375-1 0  9993",
        "tle_line2": "2 66482  42.9997 133.0564 0001537 265.2684 352.3010 15.65836771  3780"
      },
      "geometry": {
        "type": "Point",
        "coordinates": [
          125.06212788027047,
          -6.250757701674801
        ]
      }
    },
    {
      "type": "Feature",
      "properties": {
        "norad_id": 66483,
        "name": "STARLINK-35654",
        "group": "last-30-days",
        "lat": -4.949773712056103,
        "lon": 126.47385520855067,
        "alt_km": 373.82974345799266,
        "timestamp": "2025-12-02T08:59:31.503545+00:00",
        "meta_object_name": "STARLINK-35654",
        "meta_object_id": "2025-262AD",
        "meta_epoch": "2025-12-02T04:00:03.998880",
        "meta_mean_motion": 15.65844161,
        "meta_eccentricity": 0.0001565,
        "meta_inclination": 42.9996,
        "meta_ra_of_asc_node": 133.0506,
        "meta_arg_of_pericenter": 266.551,
        "meta_mean_anomaly": 352.934,
        "meta_ephemeris_type": 0,
        "meta_classification_type": "U",
        "meta_norad_cat_id": 66483,
        "meta_element_set_no": 999,
        "meta_rev_at_epoch": 393,
        "meta_bstar": -0.023511,
        "meta_mean_motion_dot": -0.02140668,
        "meta_mean_motion_ddot": 0,
        "tle_line1": "1 66483U 25262AD  25336.16671295 -.02140668  00000+0 -23511-1 0  9991",
        "tle_line2": "2 66483  42.9996 133.0506 0001565 266.5510 352.9340 15.65844161  3930"
      },
      "geometry": {
        "type": "Point",
        "coordinates": [
          126.47385520855067,
          -4.949773712056103
        ]
      }
    }
  ]
}